ONEWEB-0456             
1 51646U 22012AA  24104.76719583  .00000571  00000+0  15982-2 0  9995
2 51646  87.8994 194.1206 0001975 114.3453 245.7880 13.10374512105305
ONEWEB-0457             
1 51647U 22012AB  24104.74397567 -.00000128  00000+0 -40152-3 0  9996
2 51647  87.9001 194.1417 0002232  94.1574 265.9809 13.10374363105305
ONEWEB-0458             
1 51648U 22012AC  24104.76552946  .00000475  00000+0  13246-2 0  9999
2 51648  87.9005 194.1524 0001795  99.5847 260.5483 13.10374524105267
ONEWEB-0461             
1 51649U 22012AD  24104.78468459  .00000042  00000+0  74242-4 0  9992
2 51649  87.9217 163.9409 0002208  98.0584 262.0798 13.17649273109275
ONEWEB-0463             
1 51650U 22012AE  24104.69134762  .00000050  00000+0  94959-4 0  9997
2 51650  87.9222 164.0036 0002099  97.1333 263.0037 13.17648686109040
ONEWEB-0464             
1 51651U 22012AF  24104.76222066  .00000353  00000+0  97536-3 0  9990
2 51651  87.9004 194.1417 0001747 114.7649 245.3660 13.10372712105285
ONEWEB-0468             
1 51652U 22012AG  24104.76884957  .00000612  00000+0  17173-2 0  9990
2 51652  87.9002 194.1332 0001862 105.5813 254.5520 13.10375115105264
ONEWEB-0473             
1 51653U 22012AH  24104.75391554 -.00000076  00000+0 -25386-3 0  9998
2 51653  87.9004 194.1398 0001861 103.9814 256.1521 13.10374133105269
